STARLINK-2327
1 27871C 21021M   21325.11825097 -.00022604  00000-0 -15143-2 0  3254
2 27871  53.0548 107.6992 0001403  91.5042 178.9060 15.06425755    19
